[{"OBJECT_NAME":"STARLINK-32075","OBJECT_ID":"2024-136S","EPOCH":"2026-03-09T08:12:29.134368","MEAN_MOTION":15.30185308,"ECCENTRICITY":0.00013057,"INCLINATION":53.1612,"RA_OF_ASC_NODE":77.1119,"ARG_OF_PERICENTER":89.5137,"MEAN_ANOMALY":270.6014,"EPHEMERIS_TYPE":0,"CLASSIFICATION_TYPE":"U","NORAD_CAT_ID":60345,"ELEMENT_SET_NO":999,"REV_AT_EPOCH":8961,"BSTAR":-1.2369224e-5,"MEAN_MOTION_DOT":-7.25e-6,"MEAN_MOTION_DDOT":0},{"OBJECT_NAME":"BREEZE-M DEB","OBJECT_ID":"2008-011BY","EPOCH":"2026-03-08T13:02:44.424672","MEAN_MOTION":3.39018172,"ECCENTRICITY":0.6405847,"INCLINATION":48.9186,"RA_OF_ASC_NODE":112.2232,"ARG_OF_PERICENTER":92.4136,"MEAN_ANOMALY":336.9733,"EPHEMERIS_TYPE":0,"CLASSIFICATION_TYPE":"U","NORAD_CAT_ID":38625,"ELEMENT_SET_NO":999,"REV_AT_EPOCH":16961,"BSTAR":0.014595608,"MEAN_MOTION_DOT":0.00020195,"MEAN_MOTION_DDOT":0}]
